{
    "links": {
        "self": "http://www.neowsapp.com/rest/v1/neo/3736238?api_key=iIulBulltgU6a56xZRHN4H3l9WmuAYTsLGpBGhQ2"
    },
    "id": "3736238",
    "neo_reference_id": "3736238",
    "name": "(2015 XO129)",
    "designation": "2015 XO129",
    "nasa_jpl_url": "http://ssd.jpl.nasa.gov/sbdb.cgi?sstr=3736238",
    "absolute_magnitude_h": 25.2,
    "estimated_diameter": {
        "kilometers": {
            "estimated_diameter_min": 0.0242412481,
            "estimated_diameter_max": 0.0542050786
        },
        "meters": {
            "estimated_diameter_min": 24.2412481101,
            "estimated_diameter_max": 54.2050786336
        },
        "miles": {
            "estimated_diameter_min": 0.0150628086,
            "estimated_diameter_max": 0.0336814639
        },
        "feet": {
            "estimated_diameter_min": 79.5316564495,
            "estimated_diameter_max": 177.8381901842
        }
    },
    "is_potentially_hazardous_asteroid": false,
    "close_approach_data": [
        {
            "close_approach_date": "2015-11-20",
            "close_approach_date_full": "2015-Nov-20 06:47",
            "epoch_date_close_approach": 1448002020000,
            "relative_velocity": {
                "kilometers_per_second": "13.1754375062",
                "kilometers_per_hour": "47431.5750222883",
                "miles_per_hour": "29472.1361575991"
            },
            "miss_distance": {
                "astronomical": "0.0302219266",
                "lunar": "11.7563294474",
                "kilometers": "4521135.846656342",
                "miles": "2809303.5459758396"
            },
            "orbiting_body": "Earth"
        }
    ],
    "orbital_data": {
        "orbit_id": "6",
        "orbit_determination_date": "2018-05-10 06:25:42",
        "first_observation_date": "2015-11-19",
        "last_observation_date": "2015-12-11",
        "data_arc_in_days": 22,
        "observations_used": 30,
        "orbit_uncertainty": "8",
        "minimum_orbit_intersection": ".00796103",
        "jupiter_tisserand_invariant": "3.197",
        "epoch_osculation": "2457363.5",
        "eccentricity": ".6311994720840556",
        "semi_major_axis": "2.435718634014143",
        "inclination": "2.138308014400084",
        "ascending_node_longitude": "245.8457991694605",
        "orbital_period": "1388.478325880392",
        "perihelion_distance": ".898294318079119",
        "perihelion_argument": "127.2133313072771",
        "aphelion_distance": "3.973142949949167",
        "perihelion_time": "2457315.581720281282",
        "mean_anomaly": "12.42409073098092",
        "mean_motion": ".2592766435671474",
        "equinox": "J2000",
        "orbit_class": {
            "orbit_class_type": "APO",
            "orbit_class_description": "Near-Earth asteroid orbits which cross the Earth’s orbit similar to that of 1862 Apollo",
            "orbit_class_range": "a (semi-major axis) > 1.0 AU; q (perihelion) < 1.017 AU"
        }
    },
    "is_sentry_object": false
}